OBJECT_NAME,OBJECT_ID,EPOCH,MEAN_MOTION,ECCENTRICITY,INCLINATION,RA_OF_ASC_NODE,ARG_OF_PERICENTER,MEAN_ANOMALY,EPHEMERIS_TYPE,CLASSIFICATION_TYPE,NORAD_CAT_ID,ELEMENT_SET_NO,REV_AT_EPOCH,BSTAR,MEAN_MOTION_DOT,MEAN_MOTION_DDOT
STARLINK-36381,2026-037W,2026-06-18T17:58:28.493760,15.27607048,.00013799,42.9942,340.2233,134.1811,225.9154,0,U,67952,999,1879,.60073169E-3,.16319E-3,0
STARLINK-36824,2026-037X,2026-06-18T18:04:02.166240,15.27586673,.00021259,43.0026,340.2736,277.1825,82.8785,0,U,67953,999,1879,.78143756E-3,.21308E-3,0
STARLINK-36869,2026-037Y,2026-06-18T17:43:40.906560,15.27585255,.00018297,43.0041,340.1678,277.3198,82.7446,0,U,67954,999,1879,.47802168E-3,.12917E-3,0
STARLINK-36872,2026-037Z,2026-06-18T12:50:06.090144,15.27588125,.0002199,43.0033,341.1956,276.7431,83.3170,0,U,67955,999,1876,.49598E-3,.13414E-3,0
STARLINK-36918,2026-037AA,2026-06-18T12:44:32.750304,15.27597606,.0002037,43.0034,341.1707,273.6787,86.3832,0,U,67956,999,1876,.50044E-3,.13542E-3,0
STARLINK-36829,2026-037AB,2026-06-17T21:14:05.091360,15.27588071,.00021931,43.0041,344.9298,264.1669,95.8933,0,U,67957,999,1865,.80660186E-3,.22006E-3,0
STARLINK-36799,2026-037AC,2026-06-18T12:38:59.909856,15.27588996,.0002344,43.0067,341.1319,264.4133,95.6452,0,U,67958,999,1876,.49996E-3,.13525E-3,0
STARLINK-36834,2026-037AD,2026-06-18T18:40:49.300032,15.27592533,.00017637,43.0024,339.5895,269.6677,90.3972,0,U,67959,999,1880,.70821107E-3,.19285E-3,0
STARLINK-36841,2026-037AE,2026-06-18T18:46:22.334016,15.27591243,.00017351,43.0041,339.6168,277.2270,82.8385,0,U,67960,999,1880,.44740847E-3,.12074E-3,0
STARLINK-36912,2026-038A,2026-06-18T22:53:56.840640,15.33449518,.00018194,97.2857,179.5625,92.8415,267.3036,0,U,67961,999,1875,.49152028E-3,.15829E-3,0
STARLINK-36881,2026-038B,2026-06-18T22:50:01.960512,15.33442873,.00016288,97.2845,179.5671,106.7590,253.3832,0,U,67962,999,1875,.78446761E-3,.25334E-3,0
STARLINK-36357,2026-038C,2026-06-18T22:42:12.082752,15.33449945,.00020825,97.2826,179.5710,85.3818,274.7662,0,U,67963,999,1875,.36185293E-3,.11627E-3,0
STARLINK-36349,2026-038D,2026-06-18T22:46:06.996576,15.33447200,.00017872,97.2831,179.5672,86.4270,273.7177,0,U,67964,999,1875,.42851186E-3,.13785E-3,0
STARLINK-36806,2026-038E,2026-06-18T22:38:17.226816,15.33445968,.0002058,97.2839,179.5765,87.9290,272.2189,0,U,67965,999,1875,.49214969E-3,.15848E-3,0
STARLINK-36820,2026-038F,2026-06-18T22:34:22.228320,15.33454601,.00019791,97.2829,179.5811,90.5036,269.6434,0,U,67966,999,1875,.72526961E-3,.2342E-3,0
STARLINK-36819,2026-038G,2026-06-18T22:30:27.348192,15.33449395,.00019672,97.2830,179.5819,98.3617,261.7848,0,U,67967,999,1875,.3996014E-3,.1285E-3,0
STARLINK-36812,2026-038H,2026-06-18T22:26:32.359200,15.33451417,.00017862,97.2828,179.5878,101.8132,258.3312,0,U,67968,999,1875,.38554409E-3,.12395E-3,0
STARLINK-36709,2026-038J,2026-06-18T22:18:42.382944,15.33450882,.00017787,97.2851,179.5944,118.2901,241.8522,0,U,67969,999,1875,.44697848E-3,.14386E-3,0
STARLINK-36319,2026-038K,2026-06-18T22:22:37.349472,15.33450675,.000145,97.2858,179.5903,109.5824,250.5576,0,U,67970,999,1875,.48828924E-3,.15725E-3,0
STARLINK-36710,2026-038L,2026-06-18T22:14:47.793984,15.33465623,.00016454,97.2847,179.5992,84.5222,275.6208,0,U,67971,999,1875,.48949747E-3,.15771E-3,0
STARLINK-36894,2026-038M,2026-06-18T22:10:52.646880,15.33452450,.0001976,97.2832,179.6020,100.4649,259.6817,0,U,67972,999,1875,.35757298E-3,.11489E-3,0
STARLINK-36900,2026-038N,2026-06-18T22:03:02.975616,15.33443088,.00014995,97.2838,179.6070,88.3361,271.8053,0,U,67973,999,1875,.46284095E-3,.14896E-3,0
STARLINK-36901,2026-038P,2026-06-18T22:06:57.129984,15.33462265,.0001581,97.2841,179.6066,101.5359,258.6061,0,U,67974,999,1875,.50264707E-3,.16196E-3,0
STARLINK-36883,2026-038Q,2026-06-18T21:47:23.373888,15.33439656,.00015756,97.2841,179.6247,91.9499,268.1924,0,U,67975,999,1875,.43384464E-3,.13955E-3,0
STARLINK-36880,2026-038R,2026-06-18T21:59:07.961568,15.33445203,.00012041,97.2842,179.6110,86.1487,273.9894,0,U,67976,999,1875,.45900503E-3,.14772E-3,0
STARLINK-36904,2026-038S,2026-06-18T23:25:16.209120,15.33454809,.00022917,97.2838,179.6856,105.6186,254.5310,0,U,67977,999,1876,.45424972E-3,.14623E-3,0
STARLINK-36364,2026-038T,2026-06-18T18:31:36.333984,15.33475450,.00004821,97.2850,179.5045,106.4479,253.6816,0,U,67978,999,1873,.50793176E-3,.16374E-3,0
STARLINK-36359,2026-038U,2026-06-18T23:29:11.090112,15.33450532,.00016617,97.2845,179.6818,94.6874,265.4559,0,U,67979,999,1876,.40897795E-3,.13154E-3,0
STARLINK-36882,2026-038V,2026-06-18T18:35:32.520480,15.33448917,.00012067,97.2846,179.5006,93.4014,266.7367,0,U,67980,999,1873,.49401944E-3,.15909E-3,0
STARLINK-36874,2026-038W,2026-06-18T18:27:42.059520,15.33461682,.00014049,97.2851,179.5093,92.3666,267.7737,0,U,67981,999,1873,.50852233E-3,.16386E-3,0
