STARLINK-36381          
1 67952U 26037W   26169.74894090  .00016319  00000+0  60073-3 0  9990
2 67952  42.9942 340.2233 0001379 134.1811 225.9154 15.27607048 18790
STARLINK-36824          
1 67953U 26037X   26169.75280285  .00021308  00000+0  78144-3 0  9999
2 67953  43.0026 340.2736 0002125 277.1825  82.8785 15.27586673 18797
STARLINK-36869          
1 67954U 26037Y   26169.73866790  .00012917  00000+0  47802-3 0  9992
2 67954  43.0041 340.1678 0001829 277.3198  82.7446 15.27585255 18792
STARLINK-36872          
1 67955U 26037Z   26169.53479271  .00013414  00000+0  49598-3 0  9992
2 67955  43.0033 341.1956 0002199 276.7431  83.3170 15.27588125 18765
STARLINK-36918          
1 67956U 26037AA  26169.53093461  .00013542  00000+0  50044-3 0  9996
2 67956  43.0034 341.1707 0002037 273.6787  86.3832 15.27597606 18764
STARLINK-36829          
1 67957U 26037AB  26168.88478115  .00022006  00000+0  80660-3 0  9999
2 67957  43.0041 344.9298 0002193 264.1669  95.8933 15.27588071 18657
STARLINK-36799          
1 67958U 26037AC  26169.52708229  .00013525  00000+0  49996-3 0  9997
2 67958  43.0067 341.1319 0002344 264.4133  95.6452 15.27588996 18768
STARLINK-36834          
1 67959U 26037AD  26169.77834838  .00019285  00000+0  70821-3 0  9991
2 67959  43.0024 339.5895 0001763 269.6677  90.3972 15.27592533 18802
STARLINK-36841          
1 67960U 26037AE  26169.78220294  .00012074  00000+0  44741-3 0  9990
2 67960  43.0041 339.6168 0001735 277.2270  82.8385 15.27591243 18801
STARLINK-36912          
1 67961U 26038A   26169.95413010  .00015829  00000+0  49152-3 0  9993
2 67961  97.2857 179.5625 0001819  92.8415 267.3036 15.33449518 18753
STARLINK-36881          
1 67962U 26038B   26169.95141158  .00025334  00000+0  78447-3 0  9996
2 67962  97.2845 179.5671 0001628 106.7590 253.3832 15.33442873 18755
STARLINK-36357          
1 67963U 26038C   26169.94597318  .00011627  00000+0  36185-3 0  9992
2 67963  97.2826 179.5710 0002082  85.3818 274.7662 15.33449945 18754
STARLINK-36349          
1 67964U 26038D   26169.94869209  .00013785  00000+0  42851-3 0  9998
2 67964  97.2831 179.5672 0001787  86.4270 273.7177 15.33447200 18755
STARLINK-36806          
1 67965U 26038E   26169.94325494  .00015848  00000+0  49215-3 0  9995
2 67965  97.2839 179.5765 0002058  87.9290 272.2189 15.33445968 18753
STARLINK-36820          
1 67966U 26038F   26169.94053505  .00023420  00000+0  72527-3 0  9994
2 67966  97.2829 179.5811 0001979  90.5036 269.6434 15.33454601 18751
STARLINK-36819          
1 67967U 26038G   26169.93781653  .00012850  00000+0  39960-3 0  9995
2 67967  97.2830 179.5819 0001967  98.3617 261.7848 15.33449395 18756
STARLINK-36812          
1 67968U 26038H   26169.93509675  .00012395  00000+0  38554-3 0  9990
2 67968  97.2828 179.5878 0001786 101.8132 258.3312 15.33451417 18756
STARLINK-36709          
1 67969U 26038J   26169.92965721  .00014386  00000+0  44698-3 0  9996
2 67969  97.2851 179.5944 0001778 118.2901 241.8522 15.33450882 18759
STARLINK-36319          
1 67970U 26038K   26169.93237673  .00015725  00000+0  48829-3 0  9995
2 67970  97.2858 179.5903 0001450 109.5824 250.5576 15.33450675 18753
STARLINK-36710          
1 67971U 26038L   26169.92694206  .00015771  00000+0  48950-3 0  9990
2 67971  97.2847 179.5992 0001645  84.5222 275.6208 15.33465623 18759
STARLINK-36894          
1 67972U 26038M   26169.92422045  .00011489  00000+0  35757-3 0  9994
2 67972  97.2832 179.6020 0001976 100.4649 259.6817 15.33452450 18757
STARLINK-36900          
1 67973U 26038N   26169.91878444  .00014896  00000+0  46284-3 0  9994
2 67973  97.2838 179.6070 0001499  88.3361 271.8053 15.33443088 18759
STARLINK-36901          
1 67974U 26038P   26169.92149456  .00016196  00000+0  50265-3 0  9999
2 67974  97.2841 179.6066 0001581 101.5359 258.6061 15.33462265 18756
STARLINK-36883          
1 67975U 26038Q   26169.90790942  .00013955  00000+0  43384-3 0  9994
2 67975  97.2841 179.6247 0001575  91.9499 268.1924 15.33439656 18750
STARLINK-36880          
1 67976U 26038R   26169.91606437  .00014772  00000+0  45901-3 0  9996
2 67976  97.2842 179.6110 0001204  86.1487 273.9894 15.33445203 18758
STARLINK-36904          
1 67977U 26038S   26169.97588205  .00014623  00000+0  45425-3 0  9991
2 67977  97.2838 179.6856 0002291 105.6186 254.5310 15.33454809 18762
STARLINK-36364          
1 67978U 26038T   26169.77194831  .00016374  00000+0  50793-3 0  9997
2 67978  97.2850 179.5045 0000482 106.4479 253.6816 15.33475450 18733
STARLINK-36359          
1 67979U 26038U   26169.97860058  .00013154  00000+0  40898-3 0  9999
2 67979  97.2845 179.6818 0001661  94.6874 265.4559 15.33450532 18766
STARLINK-36882          
1 67980U 26038V   26169.77468195  .00015909  00000+0  49402-3 0  9995
2 67980  97.2846 179.5006 0001206  93.4014 266.7367 15.33448917 18737
STARLINK-36874          
1 67981U 26038W   26169.76923680  .00016386  00000+0  50852-3 0  9991
2 67981  97.2851 179.5093 0001404  92.3666 267.7737 15.33461682 18737
